COMMENT,ORIGINATOR,NORAD_CAT_ID,OBJECT_NAME,OBJECT_TYPE,CLASSIFICATION_TYPE,INTLDES,EPOCH,EPOCH_MICROSECONDS,MEAN_MOTION,ECCENTRICITY,INCLINATION,RA_OF_ASC_NODE,ARG_OF_PERICENTER,MEAN_ANOMALY,EPHEMERIS_TYPE,ELEMENT_SET_NO,REV_AT_EPOCH,BSTAR,MEAN_MOTION_DOT,MEAN_MOTION_DDOT,FILE,TLE_LINE0,TLE_LINE1,TLE_LINE2,OBJECT_ID,OBJECT_NUMBER,SEMIMAJOR_AXIS,PERIOD,APOGEE,PERIGEE,DECAYED
"GENERATED VIA SPACETRACK.ORG API","18 SPCS","55097","SPACEBEE-160","PAYLOAD","U","23001CS","2023-05-21 03:02:27","431232","15.19139773","0.001689","97.478","201.4877","98.8359","261.4788","0","999","2099","0.0010137","0.00021352","0","3913705","0 SPACEBEE-160","1 55097U 23001CS  23141.12670638  .00021352  00000-0  10137-2 0  9993","2 55097  97.4780 201.4877 0016890  98.8359 261.4788 15.19139773 20990","2023-001CS","55097","6886.576","94.790","520.073","496.810","0"
"GENERATED VIA SPACETRACK.ORG API","18 SPCS","55097","SPACEBEE-160","PAYLOAD","U","23001CS","2023-05-21 03:02:27","431232","15.19139773","0.001689","97.478","201.4877","98.8359","261.4788","0","999","2099","0.0010137","0.00021352","0","3913738","0 SPACEBEE-160","1 55097U 23001CS  23141.12670638  .00021352  00000-0  10137-2 0  9993","2 55097  97.4780 201.4877 0016890  98.8359 261.4788 15.19139773 20990","2023-001CS","55097","6886.576","94.790","520.073","496.810","0"
"GENERATED VIA SPACETRACK.ORG API","18 SPCS","55097","SPACEBEE-160","PAYLOAD","U","23001CS","2023-05-21 22:00:39","412512","15.19170622","0.0016832","97.4778","202.2701","96.246","264.0692","0","999","2111","0.00091947","0.00019373","0","3914061","0 SPACEBEE-160","1 55097U 23001CS  23141.91712283  .00019373  00000-0  91947-3 0  9992","2 55097  97.4778 202.2701 0016832  96.2460 264.0692 15.19170622 21119","2023-001CS","55097","6886.483","94.789","519.939","496.757","0"
"GENERATED VIA SPACETRACK.ORG API","18 SPCS","55097","SPACEBEE-160","PAYLOAD","U","23001CS","2023-05-22 10:39:26","620704","15.19194846","0.0016834","97.4777","202.792","94.7332","265.5826","0","999","2119","0.0010804","0.00022802","0","3914655","0 SPACEBEE-160","1 55097U 23001CS  23142.44405811  .00022802  00000-0  10804-2 0  9990","2 55097  97.4777 202.7920 0016834  94.7332 265.5826 15.19194846 21196","2023-001CS","55097","6886.410","94.787","519.867","496.682","0"
"GENERATED VIA SPACETRACK.ORG API","18 SPCS","55097","SPACEBEE-160","PAYLOAD","U","23001CS","2023-05-22 10:39:26","620704","15.19194846","0.0016834","97.4777","202.792","94.7332","265.5826","0","999","2119","0.0010804","0.00022802","0","3914693","0 SPACEBEE-160","1 55097U 23001CS  23142.44405811  .00022802  00000-0  10804-2 0  9990","2 55097  97.4777 202.7920 0016834  94.7332 265.5826 15.19194846 21196","2023-001CS","55097","6886.410","94.787","519.867","496.682","0"
"GENERATED VIA SPACETRACK.ORG API","18 SPCS","55097","SPACEBEE-160","PAYLOAD","U","23001CS","2023-05-22 21:43:22","492416","15.19207424","0.0016875","97.4777","203.2484","93.2482","267.0683","0","999","2126","0.0008807","0.00018571","0","3914964","0 SPACEBEE-160","1 55097U 23001CS  23142.90512144  .00018571  00000-0  88070-3 0  9998","2 55097  97.4777 203.2484 0016875  93.2482 267.0683 15.19207424 21265","2023-001CS","55097","6886.372","94.786","519.857","496.616","0"
"GENERATED VIA SPACETRACK.ORG API","18 SPCS","55097","SPACEBEE-160","PAYLOAD","U","23001CS","2023-05-23 04:02:45","622176","15.19217505","0.0016886","97.4777","203.5092","92.3828","267.9339","0","999","2130","0.00086482","0.0001824","0","3915530","0 SPACEBEE-160","1 55097U 23001CS  23143.16858359  .00018240  00000-0  86482-3 0  9996","2 55097  97.4777 203.5092 0016886  92.3828 267.9339 15.19217505 21302","2023-001CS","55097","6886.341","94.786","519.834","496.578","0"
"GENERATED VIA SPACETRACK.ORG API","18 SPCS","55097","SPACEBEE-160","PAYLOAD","U","23001CS","2023-05-23 16:41:31","518816","15.19233979","0.0016876","97.4775","204.0311","90.8351","269.4817","0","999","2138","0.00079087","0.00016678","0","3915766","0 SPACEBEE-160","1 55097U 23001CS  23143.69550369  .00016678  00000-0  79087-3 0  9990","2 55097  97.4775 204.0311 0016876  90.8351 269.4817 15.19233979 21382","2023-001CS","55097","6886.291","94.785","519.778","496.535","0"
"GENERATED VIA SPACETRACK.ORG API","18 SPCS","55097","SPACEBEE-160","PAYLOAD","U","23001CS","2023-05-24 14:49:20","618400","15.19261369","0.0016812","97.4773","204.9443","88.0942","272.2218","0","999","2152","0.00070599","0.00014889","0","3916530","0 SPACEBEE-160","1 55097U 23001CS  23144.61759975  .00014889  00000-0  70599-3 0  9998","2 55097  97.4773 204.9443 0016812  88.0942 272.2218 15.19261369 21527","2023-001CS","55097","6886.209","94.783","519.651","496.497","0"
"GENERATED VIA SPACETRACK.ORG API","18 SPCS","55097","SPACEBEE-160","PAYLOAD","U","23001CS","2023-05-24 14:49:20","618400","15.19261369","0.0016812","97.4773","204.9443","88.0942","272.2218","0","999","2152","0.00070599","0.00014889","0","3916549","0 SPACEBEE-160","1 55097U 23001CS  23144.61759975  .00014889  00000-0  70599-3 0  9998","2 55097  97.4773 204.9443 0016812  88.0942 272.2218 15.19261369 21527","2023-001CS","55097","6886.209","94.783","519.651","496.497","0"
"GENERATED VIA SPACETRACK.ORG API","18 SPCS","55097","SPACEBEE-160","PAYLOAD","U","23001CS","2023-05-25 17:41:39","757344","15.19294953","0.001669","97.4771","206.0528","84.2469","276.0668","0","999","2169","0.00072745","0.00015359","0","3917108","0 SPACEBEE-160","1 55097U 23001CS  23145.73726571  .00015359  00000-0  72745-3 0  9996","2 55097  97.4771 206.0528 0016690  84.2469 276.0668 15.19294953 21692","2023-001CS","55097","6886.107","94.781","519.465","496.479","0"
"GENERATED VIA SPACETRACK.ORG API","18 SPCS","55097","SPACEBEE-160","PAYLOAD","U","23001CS","2023-05-25 22:26:11","179104","15.19298442","0.0016683","97.4772","206.2486","83.7547","276.5587","0","999","2172","0.00066117","0.00013952","0","3917122","0 SPACEBEE-160","1 55097U 23001CS  23145.93485161  .00013952  00000-0  66117-3 0  9998","2 55097  97.4772 206.2486 0016683  83.7547 276.5587 15.19298442 21727","2023-001CS","55097","6886.097","94.781","519.450","496.474","0"
"GENERATED VIA SPACETRACK.ORG API","18 SPCS","55097","SPACEBEE-160","PAYLOAD","U","23001CS","2023-05-26 03:10:42","502368","15.19305028","0.0016618","97.4772","206.4443","83.211","277.1015","0","999","2175","0.00067968","0.00014347","0","3917630","0 SPACEBEE-160","1 55097U 23001CS  23146.13243637  .00014347  00000-0  67968-3 0  9995","2 55097  97.4772 206.4443 0016618  83.2110 277.1015 15.19305028 21756","2023-001CS","55097","6886.077","94.780","519.385","496.498","0"
"GENERATED VIA SPACETRACK.ORG API","18 SPCS","55097","SPACEBEE-160","PAYLOAD","U","23001CS","2023-05-26 17:24:16","145568","15.19321218","0.0016565","97.4771","207.0312","81.33","278.981","0","999","2184","0.00066182","0.00013974","0","3917850","0 SPACEBEE-160","1 55097U 23001CS  23146.72518687  .00013974  00000-0  66182-3 0  9992","2 55097  97.4771 207.0312 0016565  81.3300 278.9810 15.19321218 21849","2023-001CS","55097","6886.028","94.779","519.300","496.486","0"
"GENERATED VIA SPACETRACK.ORG API","18 SPCS","55097","SPACEBEE-160","PAYLOAD","U","23001CS","2023-05-27 02:53:18","294432","15.19331441","0.0016545","97.4772","207.4225","80.0412","280.2689","0","999","2190","0.00063975","0.00013509","0","3918179","0 SPACEBEE-160","1 55097U 23001CS  23147.12035063  .00013509  00000-0  63975-3 0  9990","2 55097  97.4772 207.4225 0016545  80.0412 280.2689 15.19331441 21901","2023-001CS","55097","6885.997","94.779","519.255","496.469","0"
"GENERATED VIA SPACETRACK.ORG API","18 SPCS","55097","SPACEBEE-160","PAYLOAD","U","23001CS","2023-05-27 21:51:21","900096","15.19350281","0.0016533","97.4775","208.2052","77.4993","282.809","0","999","2202","0.00057845","0.00012212","0","3918755","0 SPACEBEE-160","1 55097U 23001CS  23147.91067014  .00012212  00000-0  57845-3 0  9997","2 55097  97.4775 208.2052 0016533  77.4993 282.8090 15.19350281 22023","2023-001CS","55097","6885.940","94.777","519.190","496.420","0"
"GENERATED VIA SPACETRACK.ORG API","18 SPCS","55097","SPACEBEE-160","PAYLOAD","U","23001CS","2023-05-28 02:35:52","645344","15.19356043","0.0016499","97.4776","208.4008","76.9013","283.4062","0","999","2205","0.00058905","0.0001244","0","3919252","0 SPACEBEE-160","1 55097U 23001CS  23148.10824821  .00012440  00000-0  58905-3 0  9997","2 55097  97.4776 208.4008 0016499  76.9013 283.4062 15.19356043 22056","2023-001CS","55097","6885.923","94.777","519.149","496.427","0"
"GENERATED VIA SPACETRACK.ORG API","18 SPCS","55097","SPACEBEE-160","PAYLOAD","U","23001CS","2023-05-28 15:14:34","323936","15.19373619","0.0016503","97.4777","208.9225","75.2498","285.0564","0","999","2213","0.00071609","0.00015151","0","3919536","0 SPACEBEE-160","1 55097U 23001CS  23148.63511949  .00015151  00000-0  71609-3 0  9997","2 55097  97.4777 208.9225 0016503  75.2498 285.0564 15.19373619 22130","2023-001CS","55097","6885.869","94.776","519.098","496.371","0"
"GENERATED VIA SPACETRACK.ORG API","18 SPCS","55097","SPACEBEE-160","PAYLOAD","U","23001CS","2023-05-28 21:33:54","991296","15.19380805","0.0016522","97.4777","209.1836","74.318","285.9876","0","999","2217","0.00070474","0.00014912","0","3919546","0 SPACEBEE-160","1 55097U 23001CS  23148.89855314  .00014912  00000-0  70474-3 0  9995","2 55097  97.4777 209.1836 0016522  74.3180 285.9876 15.19380805 22174","2023-001CS","55097","6885.848","94.775","519.090","496.336","0"
"GENERATED VIA SPACETRACK.ORG API","18 SPCS","55097","SPACEBEE-160","PAYLOAD","U","23001CS","2023-05-29 03:53:15","520416","15.19388125","0.0016497","97.4778","209.4444","73.4774","286.8272","0","999","2221","0.00065847","0.00013929","0","3920065","0 SPACEBEE-160","1 55097U 23001CS  23149.16198519  .00013929  00000-0  65847-3 0  9998","2 55097  97.4778 209.4444 0016497  73.4774 286.8272 15.19388125 22211","2023-001CS","55097","6885.826","94.775","519.050","496.331","0"
